OBJECT_NAME,OBJECT_ID,EPOCH,MEAN_MOTION,ECCENTRICITY,INCLINATION,RA_OF_ASC_NODE,ARG_OF_PERICENTER,MEAN_ANOMALY,EPHEMERIS_TYPE,CLASSIFICATION_TYPE,NORAD_CAT_ID,ELEMENT_SET_NO,REV_AT_EPOCH,BSTAR,MEAN_MOTION_DOT,MEAN_MOTION_DDOT
STARLINK-1465,2020-038B,2024-08-13T21:01:17.232960,15.06388114,.000132,53.0541,288.0800,96.6844,263.4295,0,U,45731,999,22985,.27759E-2,.41295E-3,0
STARLINK-1467,2020-038D,2024-08-13T23:13:43.759776,15.50900382,.0005799,53.0644,203.0357,340.5209,19.5577,0,U,45733,999,23108,.12369E-2,.73047E-3,0
STARLINK-1468,2020-038E,2024-08-13T17:13:02.439840,15.42241477,.0005982,53.0687,223.4394,32.3802,327.7569,0,U,45734,999,23077,.12121E-2,.52873E-3,0
STARLINK-1471,2020-038F,2024-08-13T21:22:31.938816,15.06391732,.0002307,53.0540,288.0111,84.7885,275.3367,0,U,45735,999,23097,.84563E-3,.12334E-3,0
STARLINK-1474,2020-038J,2024-08-13T13:08:52.827360,15.06377506,.0001441,53.0546,289.5528,52.6714,307.4406,0,U,45738,999,22980,.20876E-2,.30931E-3,0
STARLINK-1475,2020-038K,2024-08-14T01:03:43.923168,15.15807152,.0001873,53.0515,243.3223,48.6756,311.4398,0,U,45739,999,23145,.18879E-2,.36371E-3,0
STARLINK-1479,2020-038L,2024-08-13T13:19:30.929376,15.06373580,.0001743,53.0547,289.5229,110.7993,249.3183,0,U,45740,999,23092,.9652E-5,-.138E-5,0
STARLINK-1480,2020-038M,2024-08-14T04:32:27.902976,15.06399321,.0001888,53.0546,286.6732,100.7823,259.3379,0,U,45741,999,23102,.15003E-2,.22136E-3,0
STARLINK-1481,2020-038N,2024-08-14T04:21:50.530176,15.06374747,.000268,53.0510,286.7052,104.2925,255.8362,0,U,45742,999,23101,.37187E-3,.5258E-4,0
STARLINK-1483,2020-038P,2024-08-13T18:47:07.409760,15.43310477,.000839,53.0471,251.6732,353.2511,6.8380,0,U,45743,999,23036,.11271E-2,.50961E-3,0
STARLINK-1500,2020-038Q,2024-08-13T21:43:45.866208,15.06398825,.0001625,53.0512,287.9480,82.2030,277.9143,0,U,45744,999,23078,.80671E-3,.11754E-3,0
STARLINK-1503,2020-038R,2024-08-13T21:27:50.423904,15.06380000,.0001664,53.0542,287.9939,91.3600,268.7580,0,U,45745,999,22985,.32743E-3,.4596E-4,0
STARLINK-1504,2020-038S,2024-08-13T20:53:32.840736,15.11792606,.0001564,53.0534,285.6032,53.6674,306.4461,0,U,45746,999,22988,.15421E-2,.26431E-3,0
STARLINK-1506,2020-038T,2024-08-13T21:54:24.320736,15.06396147,.0001757,53.0532,287.9139,99.9359,260.1829,0,U,45747,999,22986,.2137E-2,.3169E-3,0
STARLINK-1391,2020-038W,2024-08-14T03:04:52.325760,15.06390002,.0001922,53.0547,266.9384,102.2900,257.8304,0,U,45750,999,23129,.5463E-3,.7863E-4,0
STARLINK-1464,2020-038X,2024-08-13T20:37:24.690720,15.06391742,.0002157,53.0534,268.1454,108.0824,252.0400,0,U,45751,999,23014,-.74885E-4,-.1397E-4,0
STARLINK-1476,2020-038Z,2024-08-14T03:15:29.282976,15.06395814,.0001535,53.0539,266.9129,97.2778,262.8386,0,U,45753,999,23129,.22848E-3,.3123E-4,0
STARLINK-1477,2020-038AA,2024-08-14T03:20:47.694624,15.06371837,.000245,53.0547,266.9009,102.7819,257.3444,0,U,45754,999,23114,-.1117E-3,-.1944E-4,0
STARLINK-1478,2020-038AB,2024-08-13T19:49:36.043968,15.06414173,.0001478,53.0539,268.3021,79.1746,280.9409,0,U,45755,999,23012,.56072E-3,.8083E-4,0
STARLINK-1484,2020-038AC,2024-08-13T19:12:42.211584,15.15955362,.000139,53.0530,261.2120,39.5216,320.5878,0,U,45756,999,23022,.99335E-3,.19025E-3,0
STARLINK-1486,2020-038AD,2024-08-13T23:10:46.027200,15.41936385,.0007011,53.0741,204.5445,0.7205,359.3809,0,U,45757,999,23105,.11663E-2,.50334E-3,0
STARLINK-1487,2020-038AE,2024-08-14T05:11:38.311296,15.36368066,.0004619,53.0353,200.9081,61.4093,298.7373,0,U,45758,999,23223,.1762E-2,.63572E-3,0
STARLINK-1493,2020-038AF,2024-08-13T19:33:41.759424,15.06369405,.0001292,53.0543,268.3535,96.3223,263.7913,0,U,45759,999,23012,.19289E-4,.6E-7,0
STARLINK-1494,2020-038AG,2024-08-14T03:36:42.828480,15.06376396,.0002641,53.0535,266.8470,106.7546,253.3733,0,U,45760,999,23110,.65363E-3,.9461E-4,0
STARLINK-1499,2020-038AJ,2024-08-13T21:06:08.661888,15.46125648,.0007239,53.0051,181.2368,35.7854,324.3636,0,U,45762,999,23136,.12747E-2,.6361E-3,0
STARLINK-1502,2020-038AL,2024-08-13T20:21:28.412064,15.06389071,.0001401,53.0557,268.2023,86.2557,273.8592,0,U,45764,999,23014,-.43574E-4,-.93E-5,0
STARLINK-1509,2020-038AN,2024-08-13T13:41:03.263424,15.49883719,.0005152,53.0386,176.2806,57.5335,302.6170,0,U,45766,999,23233,.13567E-2,.7735E-3,0
STARLINK-1511,2020-038AP,2024-08-14T04:59:45.544128,15.41657494,.0004437,53.0474,236.1007,356.6128,3.4845,0,U,45767,999,23154,.12709E-2,.54379E-3,0
