STARLINK-1465           
1 45731U 20038B   24226.87589390  .00041295  00000+0  27759-2 0  9990
2 45731  53.0541 288.0800 0001320  96.6844 263.4295 15.06388114229853
STARLINK-1467           
1 45733U 20038D   24226.96786759  .00073047  00000+0  12369-2 0  9991
2 45733  53.0644 203.0357 0005799 340.5209  19.5577 15.50900382231080
STARLINK-1468           
1 45734U 20038E   24226.71738935  .00052873  00000+0  12121-2 0  9998
2 45734  53.0687 223.4394 0005982  32.3802 327.7569 15.42241477230778
STARLINK-1471           
1 45735U 20038F   24226.89064744  .00012334  00000+0  84563-3 0  9996
2 45735  53.0540 288.0111 0002307  84.7885 275.3367 15.06391732230977
STARLINK-1474           
1 45738U 20038J   24226.54783365  .00030931  00000+0  20876-2 0  9997
2 45738  53.0546 289.5528 0001441  52.6714 307.4406 15.06377506229801
STARLINK-1475           
1 45739U 20038K   24227.04425837  .00036371  00000+0  18879-2 0  9995
2 45739  53.0515 243.3223 0001873  48.6756 311.4398 15.15807152231452
STARLINK-1479           
1 45740U 20038L   24226.55521909 -.00000138  00000+0  96520-5 0  9994
2 45740  53.0547 289.5229 0001743 110.7993 249.3183 15.06373580230922
STARLINK-1480           
1 45741U 20038M   24227.18921184  .00022136  00000+0  15003-2 0  9999
2 45741  53.0546 286.6732 0001888 100.7823 259.3379 15.06399321231021
STARLINK-1481           
1 45742U 20038N   24227.18183484  .00005258  00000+0  37187-3 0  9997
2 45742  53.0510 286.7052 0002680 104.2925 255.8362 15.06374747231019
STARLINK-1483           
1 45743U 20038P   24226.78272465  .00050961  00000+0  11271-2 0  9997
2 45743  53.0471 251.6732 0008390 353.2511   6.8380 15.43310477230365
STARLINK-1500           
1 45744U 20038Q   24226.90539197  .00011754  00000+0  80671-3 0  9998
2 45744  53.0512 287.9480 0001625  82.2030 277.9143 15.06398825230789
STARLINK-1503           
1 45745U 20038R   24226.89433361  .00004596  00000+0  32743-3 0  9996
2 45745  53.0542 287.9939 0001664  91.3600 268.7580 15.06380000229854
STARLINK-1504           
1 45746U 20038S   24226.87051899  .00026431  00000+0  15421-2 0  9992
2 45746  53.0534 285.6032 0001564  53.6674 306.4461 15.11792606229882
STARLINK-1506           
1 45747U 20038T   24226.91278149  .00031690  00000+0  21370-2 0  9990
2 45747  53.0532 287.9139 0001757  99.9359 260.1829 15.06396147229867
STARLINK-1391           
1 45750U 20038W   24227.12838340  .00007863  00000+0  54630-3 0  9994
2 45750  53.0547 266.9384 0001922 102.2900 257.8304 15.06390002231295
STARLINK-1464           
1 45751U 20038X   24226.85931355 -.00001397  00000+0 -74885-4 0  9997
2 45751  53.0534 268.1454 0002157 108.0824 252.0400 15.06391742230143
STARLINK-1476           
1 45753U 20038Z   24227.13575559  .00003123  00000+0  22848-3 0  9999
2 45753  53.0539 266.9129 0001535  97.2778 262.8386 15.06395814231294
STARLINK-1477           
1 45754U 20038AA  24227.13944091 -.00001944  00000+0 -11170-3 0  9998
2 45754  53.0547 266.9009 0002450 102.7819 257.3444 15.06371837231143
STARLINK-1478           
1 45755U 20038AB  24226.82611162  .00008083  00000+0  56072-3 0  9993
2 45755  53.0539 268.3021 0001478  79.1746 280.9409 15.06414173230121
STARLINK-1484           
1 45756U 20038AC  24226.80048856  .00019025  00000+0  99335-3 0  9993
2 45756  53.0530 261.2120 0001390  39.5216 320.5878 15.15955362230222
STARLINK-1486           
1 45757U 20038AD  24226.96581050  .00050334  00000+0  11663-2 0  9994
2 45757  53.0741 204.5445 0007011   0.7205 359.3809 15.41936385231050
STARLINK-1487           
1 45758U 20038AE  24227.21641564  .00063572  00000+0  17620-2 0  9998
2 45758  53.0353 200.9081 0004619  61.4093 298.7373 15.36368066232238
STARLINK-1493           
1 45759U 20038AF  24226.81506666  .00000006  00000+0  19289-4 0  9995
2 45759  53.0543 268.3535 0001292  96.3223 263.7913 15.06369405230121
STARLINK-1494           
1 45760U 20038AG  24227.15049570  .00009461  00000+0  65363-3 0  9998
2 45760  53.0535 266.8470 0002641 106.7546 253.3733 15.06376396231109
STARLINK-1499           
1 45762U 20038AJ  24226.87926692  .00063610  00000+0  12747-2 0  9990
2 45762  53.0051 181.2368 0007239  35.7854 324.3636 15.46125648231366
STARLINK-1502           
1 45764U 20038AL  24226.84824551 -.00000930  00000+0 -43574-4 0  9992
2 45764  53.0557 268.2023 0001401  86.2557 273.8592 15.06389071230141
STARLINK-1509           
1 45766U 20038AN  24226.57017666  .00077350  00000+0  13567-2 0  9990
2 45766  53.0386 176.2806 0005152  57.5335 302.6170 15.49883719232333
STARLINK-1511           
1 45767U 20038AP  24227.20816602  .00054379  00000+0  12709-2 0  9992
2 45767  53.0474 236.1007 0004437 356.6128   3.4845 15.41657494231547
